#aV2015 12 10  0  0  0.00000000     288 DD+AD WGS84 FIT  NGA
## 1874 345600.00000000   300.00000000 57366 0.0000000000000
+   31     1  2  3  5  6  7  8  9 10 11 12 13 14 15 16 17 18
+         19 20 21 22 23 24 25 26 27 28 29 30 31 32  0  0  0
+          0  0  0  0  0  0  0  0  0  0  0  0  0  0  0  0  0
+          0  0  0  0  0  0  0  0  0  0  0  0  0  0  0  0  0
+          0  0  0  0  0  0  0  0  0  0  0  0  0  0  0  0  0
++         2  2  2  2  2  2  2  2  2  2  2  2  2  2  2  2  2
++         2  2  2  2  2  2  2  2  2  2  2  2  2  2  0  0  0
++         0  0  0  0  0  0  0  0  0  0  0  0  0  0  0  0  0
++         0  0  0  0  0  0  0  0  0  0  0  0  0  0  0  0  0
++         0  0  0  0  0  0  0  0  0  0  0  0  0  0  0  0  0
%c cc cc ccc ccc cccc cccc cccc cccc ccccc ccccc ccccc ccccc
%c cc cc ccc ccc cccc cccc cccc cccc ccccc ccccc ccccc ccccc
%f  0.0000000  0.000000000  0.00000000000  0.000000000000000
%f  0.0000000  0.000000000  0.00000000000  0.000000000000000
%i    0    0    0    0      0      0      0      0         0
%i    0    0    0    0      0      0      0      0         0
/*      NGA, ST. LOUIS,MO.                                  
/*   EPHEMERIS COMPUTED FROM 2 DAYS OF DATA                 
/*   EPOCHA v2.4 SMOOTHER                                   
/*   G1762 IERS2010 SATAF SATAPC                            
*  2015 12 10 10 20  0.00000000
P  1  16114.628794   1201.531843  21040.201428      6.319992                    
V  1   8977.541792  25303.934677  -8089.039749      0.008704                    
P  2 -14153.986945 -21811.088919  -6036.472975    597.608877                    
V  2   -454.347097  -8625.157202  29803.721781      0.006882                    
P  3  20127.890947  -7540.566683  15613.529477      4.214641                    
V  3 -10866.617914  16702.238079  22056.124381     -0.050071                    
P  5 -10999.794786 -11124.457480 -21522.916457   -166.458162                    
V  5  17118.376594 -21183.970262   2401.207037      0.036902                    
P  6  -5794.389150 -25336.149495   5498.911535    109.699309                    
V  6   5012.293686   5534.096190  30769.962309      0.064911                    
P  7   8959.432563 -15079.000601 -19694.408219    477.841916                    
V  7   9863.300315  23433.821447 -13744.069885     -0.012065                    
P  8  25838.136690   5602.216368  -2469.551104    -15.643193                    
V  8  -3575.304232   2275.761439 -31574.512106     -0.014657                    
P  9  17836.330647  -9610.827097 -17192.799337     25.547330                    
V  9  21311.880193   4984.988869  19329.315271      0.077630                    
P 10  -8328.838911  22719.892050  10906.998240     40.141432                    
V 10 -10611.210899   9265.700404 -27456.904082      0.065010                    
P 11  20684.307453   4461.917017  15540.153328   -620.935495                    
V 11  11498.749389  17801.187493 -19657.923537     -0.021144                    
P 12 -19377.762509   4670.829693  17333.821198    352.160362                    
V 12  13787.943751 -17503.444233  20214.481691      0.029865                    
P 13 -21075.096913 -12749.355275  -9945.577396   -170.338074                    
V 13  12590.815844   1134.417151 -28614.009747     -0.026828                    
P 14  -1640.671739  15221.513887  21961.830534     16.379421                    
V 14 -26572.703321  -6101.086076   2124.729093     -0.023788                    
P 15 -26590.558067  -2908.633630   -353.745937   -286.443874                    
V 15    651.324200  -3370.684867 -30882.091066     -0.019228                    
P 16   9276.154033  11391.901076 -22186.694024    -58.710148                    
V 16 -19167.953264  20299.722793   2781.141183      0.034842                    
P 17   1725.897040 -14991.483296  22179.352920   -196.176576                    
V 17  26814.340233   5387.682365   1373.263600     -0.008675                    
P 18 -15469.727448  21399.459285    849.614837    461.280643                    
V 18  -3641.863987  -2144.903740 -31083.480913      0.037808                    
P 19  12896.202920 -11046.088522  20330.012546   -523.592649                    
V 19  25162.037372   7119.238895 -11545.034960     -0.003660                    
P 20 -19554.519286   5624.208356 -17266.338045    377.281080                    
V 20  10392.362846 -19186.996559 -18120.610479      0.028102                    
P 21  -5871.402157  18709.784821 -17054.269827   -498.627583                    
V 21 -11210.329312 -20545.767741 -18240.765080     -0.022728                    
P 22  -5437.196845  22812.492831  12535.316416    418.271934                    
V 22 -12159.161504  10489.007901 -25011.431554      0.035742                    
P 23  25733.627144  -1211.296659  -7165.444683   -148.941546                    
V 23   8700.159754   4123.801157  29410.005732     -0.020230                    
P 24 -17062.834237  -4088.704120  19950.999771     -9.097536                    
V 24  -8632.808498 -23913.594575 -12083.594846     -0.006254                    
P 25 -19436.002704  16423.191613   7186.376721    -80.556609                    
V 25   4034.050772  -8674.487510  30483.339128     -0.060296                    
P 26    953.688223  19281.529008 -18226.711883   -158.764638                    
V 26 -15642.400884  17156.538054  17347.112705     -0.171431                    
P 27  20420.691613  11711.552704 -12452.619925     43.089553                    
V 27 -15830.095272   -381.374694 -26236.384361      0.032980                    
P 28  10031.096121 -21957.255361  11629.864669    487.267542                    
V 28  10510.851655  -9035.787452 -27713.610771      0.025406                    
P 29 -20418.213792   6510.851715 -15649.461474    647.736640                    
V 29 -19107.783618  -5743.664274  22551.588176      0.014091                    
P 30   2056.056530 -23315.481800 -12479.580714     68.949639                    
V 30   7115.419709  14432.946773 -25870.049223      0.052672                    
P 31   5882.970189  25378.628134   4195.964361    291.872660                    
V 31  -4246.585588  -4040.841520  31665.802020     -0.015510                    
P 32  15887.914304   4756.312177  20563.634708     43.375122                    
V 32 -17279.310823  20060.409464   9212.749805      0.119940                    
EOF
